STARLINK-36391          
1 67591U 26018C   26045.61600696  .00190233  00000+0  97047-3 0  9993
2 67591  97.2844 110.2563 0001884  72.3575 287.7899 15.80858630  3672
STARLINK-36603          
1 67592U 26018D   26045.61526109  .00182474  00000+0  93207-3 0  9992
2 67592  97.2846 110.2573 0001678  85.4635 274.6825 15.80851523  3677
STARLINK-36634          
1 67593U 26018E   26045.61410747  .00260266  00000+0  13148-2 0  9994
2 67593  97.2847 110.2584 0001313  62.8979 297.2424 15.80891778  3679
STARLINK-36638          
1 67594U 26018F   26045.61299992  .00202080  00000+0  10288-2 0  9994
2 67594  97.2848 110.2603 0001784  85.7224 274.4248 15.80873248  3675
STARLINK-36628          
1 67595U 26018G   26045.54900800 -.00591796  00000+0 -34410-2 0  9994
2 67595  97.2853 110.1932 0001660 268.7906  91.3171 15.79920417  3668
STARLINK-36629          
1 67596U 26018H   26045.58335647 -.00052419  00000+0 -35229-3 0  9994
2 67596  97.2847 110.2138 0001327  93.0487  65.2377 15.75217925  3638
STARLINK-36384          
1 67597U 26018J   26045.61005089  .00256698  00000+0  12973-2 0  9996
2 67597  97.2850 110.2627 0001284 118.2586 241.8812 15.80892637  3673
STARLINK-36358          
1 67598U 26018K   26045.58335647  .00003999  00000+0  27649-4 0  9991
2 67598  97.2850 110.2280 0001396 108.0793  84.1668 15.75203487  3681
STARLINK-36582          
1 67599U 26018L   26045.60810054  .00239527  00000+0  12136-2 0  9996
2 67599  97.2852 110.2656 0001787  66.7909 293.3547 15.80881819  3726
STARLINK-36640          
1 67600U 26018M   26045.58335647  .00028710  00000+0  19279-3 0  9992
2 67600  97.2849 110.2186 0001359 107.5836  62.7001 15.75179861  3646
STARLINK-36635          
1 67601U 26018N   26045.60721260  .00247232  00000+0  12515-2 0  9993
2 67601  97.2850 110.2663 0001567  73.3201 286.8239 15.80880794  3671
STARLINK-36631          
1 67602U 26018P   26045.60483086  .00240054  00000+0  12154-2 0  9999
2 67602  97.2852 110.2696 0001446  57.4869 302.6539 15.80894633  3676
