CCSDS_OMM_VERS = 2.0
CREATION_DATE  = 
ORIGINATOR     = 

OBJECT_NAME    = STARLINK-36391
OBJECT_ID      = 2026-018C
CENTER_NAME    = EARTH
REF_FRAME      = TEME
TIME_SYSTEM    = UTC
MEAN_ELEMENT_THEORY = SGP/SGP4

EPOCH          = 2026-02-14T14:47:03.001344
MEAN_MOTION    = 15.80858630
ECCENTRICITY   = .0001884
INCLINATION    = 97.2844
RA_OF_ASC_NODE = 110.2563
ARG_OF_PERICENTER = 72.3575
MEAN_ANOMALY   = 287.7899

EPHEMERIS_TYPE = 0
CLASSIFICATION_TYPE = U
NORAD_CAT_ID   = 67591
ELEMENT_SET_NO = 999
REV_AT_EPOCH   = 367
BSTAR          = .97047E-3
MEAN_MOTION_DOT = .190233E-2
MEAN_MOTION_DDOT = 0

CCSDS_OMM_VERS = 2.0
CREATION_DATE  = 
ORIGINATOR     = 

OBJECT_NAME    = STARLINK-36603
OBJECT_ID      = 2026-018D
CENTER_NAME    = EARTH
REF_FRAME      = TEME
TIME_SYSTEM    = UTC
MEAN_ELEMENT_THEORY = SGP/SGP4

EPOCH          = 2026-02-14T14:45:58.558176
MEAN_MOTION    = 15.80851523
ECCENTRICITY   = .0001678
INCLINATION    = 97.2846
RA_OF_ASC_NODE = 110.2573
ARG_OF_PERICENTER = 85.4635
MEAN_ANOMALY   = 274.6825

EPHEMERIS_TYPE = 0
CLASSIFICATION_TYPE = U
NORAD_CAT_ID   = 67592
ELEMENT_SET_NO = 999
REV_AT_EPOCH   = 367
BSTAR          = .93207E-3
MEAN_MOTION_DOT = .182474E-2
MEAN_MOTION_DDOT = 0

CCSDS_OMM_VERS = 2.0
CREATION_DATE  = 
ORIGINATOR     = 

OBJECT_NAME    = STARLINK-36634
OBJECT_ID      = 2026-018E
CENTER_NAME    = EARTH
REF_FRAME      = TEME
TIME_SYSTEM    = UTC
MEAN_ELEMENT_THEORY = SGP/SGP4

EPOCH          = 2026-02-14T14:44:18.885408
MEAN_MOTION    = 15.80891778
ECCENTRICITY   = .0001313
INCLINATION    = 97.2847
RA_OF_ASC_NODE = 110.2584
ARG_OF_PERICENTER = 62.8979
MEAN_ANOMALY   = 297.2424

EPHEMERIS_TYPE = 0
CLASSIFICATION_TYPE = U
NORAD_CAT_ID   = 67593
ELEMENT_SET_NO = 999
REV_AT_EPOCH   = 367
BSTAR          = .13148E-2
MEAN_MOTION_DOT = .260266E-2
MEAN_MOTION_DDOT = 0

CCSDS_OMM_VERS = 2.0
CREATION_DATE  = 
ORIGINATOR     = 

OBJECT_NAME    = STARLINK-36638
OBJECT_ID      = 2026-018F
CENTER_NAME    = EARTH
REF_FRAME      = TEME
TIME_SYSTEM    = UTC
MEAN_ELEMENT_THEORY = SGP/SGP4

EPOCH          = 2026-02-14T14:42:43.193088
MEAN_MOTION    = 15.80873248
ECCENTRICITY   = .0001784
INCLINATION    = 97.2848
RA_OF_ASC_NODE = 110.2603
ARG_OF_PERICENTER = 85.7224
MEAN_ANOMALY   = 274.4248

EPHEMERIS_TYPE = 0
CLASSIFICATION_TYPE = U
NORAD_CAT_ID   = 67594
ELEMENT_SET_NO = 999
REV_AT_EPOCH   = 367
BSTAR          = .10288E-2
MEAN_MOTION_DOT = .20208E-2
MEAN_MOTION_DDOT = 0

CCSDS_OMM_VERS = 2.0
CREATION_DATE  = 
ORIGINATOR     = 

OBJECT_NAME    = STARLINK-36628
OBJECT_ID      = 2026-018G
CENTER_NAME    = EARTH
REF_FRAME      = TEME
TIME_SYSTEM    = UTC
MEAN_ELEMENT_THEORY = SGP/SGP4

EPOCH          = 2026-02-14T13:10:34.291200
MEAN_MOTION    = 15.79920417
ECCENTRICITY   = .000166
INCLINATION    = 97.2853
RA_OF_ASC_NODE = 110.1932
ARG_OF_PERICENTER = 268.7906
MEAN_ANOMALY   = 91.3171

EPHEMERIS_TYPE = 0
CLASSIFICATION_TYPE = U
NORAD_CAT_ID   = 67595
ELEMENT_SET_NO = 999
REV_AT_EPOCH   = 366
BSTAR          = -.3441E-2
MEAN_MOTION_DOT = -.591796E-2
MEAN_MOTION_DDOT = 0

CCSDS_OMM_VERS = 2.0
CREATION_DATE  = 
ORIGINATOR     = 

OBJECT_NAME    = STARLINK-36629
OBJECT_ID      = 2026-018H
CENTER_NAME    = EARTH
REF_FRAME      = TEME
TIME_SYSTEM    = UTC
MEAN_ELEMENT_THEORY = SGP/SGP4

EPOCH          = 2026-02-14T14:00:01.999008
MEAN_MOTION    = 15.75217925
ECCENTRICITY   = .0001327
INCLINATION    = 97.2847
RA_OF_ASC_NODE = 110.2138
ARG_OF_PERICENTER = 93.0487
MEAN_ANOMALY   = 65.2377

EPHEMERIS_TYPE = 0
CLASSIFICATION_TYPE = U
NORAD_CAT_ID   = 67596
ELEMENT_SET_NO = 999
REV_AT_EPOCH   = 363
BSTAR          = -.35229E-3
MEAN_MOTION_DOT = -.52419E-3
MEAN_MOTION_DDOT = 0

CCSDS_OMM_VERS = 2.0
CREATION_DATE  = 
ORIGINATOR     = 

OBJECT_NAME    = STARLINK-36384
OBJECT_ID      = 2026-018J
CENTER_NAME    = EARTH
REF_FRAME      = TEME
TIME_SYSTEM    = UTC
MEAN_ELEMENT_THEORY = SGP/SGP4

EPOCH          = 2026-02-14T14:38:28.396896
MEAN_MOTION    = 15.80892637
ECCENTRICITY   = .0001284
INCLINATION    = 97.2850
RA_OF_ASC_NODE = 110.2627
ARG_OF_PERICENTER = 118.2586
MEAN_ANOMALY   = 241.8812

EPHEMERIS_TYPE = 0
CLASSIFICATION_TYPE = U
NORAD_CAT_ID   = 67597
ELEMENT_SET_NO = 999
REV_AT_EPOCH   = 367
BSTAR          = .12973E-2
MEAN_MOTION_DOT = .256698E-2
MEAN_MOTION_DDOT = 0

CCSDS_OMM_VERS = 2.0
CREATION_DATE  = 
ORIGINATOR     = 

OBJECT_NAME    = STARLINK-36358
OBJECT_ID      = 2026-018K
CENTER_NAME    = EARTH
REF_FRAME      = TEME
TIME_SYSTEM    = UTC
MEAN_ELEMENT_THEORY = SGP/SGP4

EPOCH          = 2026-02-14T14:00:01.999008
MEAN_MOTION    = 15.75203487
ECCENTRICITY   = .0001396
INCLINATION    = 97.2850
RA_OF_ASC_NODE = 110.2280
ARG_OF_PERICENTER = 108.0793
MEAN_ANOMALY   = 84.1668

EPHEMERIS_TYPE = 0
CLASSIFICATION_TYPE = U
NORAD_CAT_ID   = 67598
ELEMENT_SET_NO = 999
REV_AT_EPOCH   = 368
BSTAR          = .27649E-4
MEAN_MOTION_DOT = .3999E-4
MEAN_MOTION_DDOT = 0

CCSDS_OMM_VERS = 2.0
CREATION_DATE  = 
ORIGINATOR     = 

OBJECT_NAME    = STARLINK-36582
OBJECT_ID      = 2026-018L
CENTER_NAME    = EARTH
REF_FRAME      = TEME
TIME_SYSTEM    = UTC
MEAN_ELEMENT_THEORY = SGP/SGP4

EPOCH          = 2026-02-14T14:35:39.886656
MEAN_MOTION    = 15.80881819
ECCENTRICITY   = .0001787
INCLINATION    = 97.2852
RA_OF_ASC_NODE = 110.2656
ARG_OF_PERICENTER = 66.7909
MEAN_ANOMALY   = 293.3547

EPHEMERIS_TYPE = 0
CLASSIFICATION_TYPE = U
NORAD_CAT_ID   = 67599
ELEMENT_SET_NO = 999
REV_AT_EPOCH   = 372
BSTAR          = .12136E-2
MEAN_MOTION_DOT = .239527E-2
MEAN_MOTION_DDOT = 0

CCSDS_OMM_VERS = 2.0
CREATION_DATE  = 
ORIGINATOR     = 

OBJECT_NAME    = STARLINK-36640
OBJECT_ID      = 2026-018M
CENTER_NAME    = EARTH
REF_FRAME      = TEME
TIME_SYSTEM    = UTC
MEAN_ELEMENT_THEORY = SGP/SGP4

EPOCH          = 2026-02-14T14:00:01.999008
MEAN_MOTION    = 15.75179861
ECCENTRICITY   = .0001359
INCLINATION    = 97.2849
RA_OF_ASC_NODE = 110.2186
ARG_OF_PERICENTER = 107.5836
MEAN_ANOMALY   = 62.7001

EPHEMERIS_TYPE = 0
CLASSIFICATION_TYPE = U
NORAD_CAT_ID   = 67600
ELEMENT_SET_NO = 999
REV_AT_EPOCH   = 364
BSTAR          = .19279E-3
MEAN_MOTION_DOT = .2871E-3
MEAN_MOTION_DDOT = 0

CCSDS_OMM_VERS = 2.0
CREATION_DATE  = 
ORIGINATOR     = 

OBJECT_NAME    = STARLINK-36635
OBJECT_ID      = 2026-018N
CENTER_NAME    = EARTH
REF_FRAME      = TEME
TIME_SYSTEM    = UTC
MEAN_ELEMENT_THEORY = SGP/SGP4

EPOCH          = 2026-02-14T14:34:23.168640
MEAN_MOTION    = 15.80880794
ECCENTRICITY   = .0001567
INCLINATION    = 97.2850
RA_OF_ASC_NODE = 110.2663
ARG_OF_PERICENTER = 73.3201
MEAN_ANOMALY   = 286.8239

EPHEMERIS_TYPE = 0
CLASSIFICATION_TYPE = U
NORAD_CAT_ID   = 67601
ELEMENT_SET_NO = 999
REV_AT_EPOCH   = 367
BSTAR          = .12515E-2
MEAN_MOTION_DOT = .247232E-2
MEAN_MOTION_DDOT = 0

CCSDS_OMM_VERS = 2.0
CREATION_DATE  = 
ORIGINATOR     = 

OBJECT_NAME    = STARLINK-36631
OBJECT_ID      = 2026-018P
CENTER_NAME    = EARTH
REF_FRAME      = TEME
TIME_SYSTEM    = UTC
MEAN_ELEMENT_THEORY = SGP/SGP4

EPOCH          = 2026-02-14T14:30:57.386304
MEAN_MOTION    = 15.80894633
ECCENTRICITY   = .0001446
INCLINATION    = 97.2852
RA_OF_ASC_NODE = 110.2696
ARG_OF_PERICENTER = 57.4869
MEAN_ANOMALY   = 302.6539

EPHEMERIS_TYPE = 0
CLASSIFICATION_TYPE = U
NORAD_CAT_ID   = 67602
ELEMENT_SET_NO = 999
REV_AT_EPOCH   = 367
BSTAR          = .12154E-2
MEAN_MOTION_DOT = .240054E-2
MEAN_MOTION_DDOT = 0

